{"type":"FeatureCollection","name":"VATSIM Map","features":[{"type":"Feature","properties":{"id":"HLLL","oceanic":"0","label_lon":"17.275245","label_lat":"26.916667","region":"EMEA","division":"VATMENA"},"geometry":{"type":"MultiPolygon","coordinates":[[[[11.5,34.333333],[23.583333,34.333333],[24.166666666667,34],[25.133333333333,31.683333333333],[25.141411388889,31.671912777778],[25.151111111111,31.646666666667],[25.148055555556,31.646111111111],[25.129722222222,31.634166666667],[25.125833333333,31.630555555556],[25.121111111111,31.6275],[25.117222222222,31.623333333333],[25.1125,31.621111111111],[25.108888888889,31.617222222222],[25.104166666667,31.614722222222],[25.100277777778,31.610555555556],[25.096111111111,31.608055555556],[25.076388888889,31.589444444444],[25.073611111111,31.585277777778],[25.069444444444,31.581666666667],[25.063055555556,31.5725],[25.058055555556,31.561944444444],[25.056666666667,31.555833333333],[25.054166666667,31.542777777778],[25.0525,31.535833333333],[25.05,31.531388888889],[25.047777777778,31.525277777778],[25.046944444444,31.52],[25.048888888889,31.515],[25.048333333333,31.508055555556],[25.045833333333,31.503611111111],[25.041944444444,31.499444444444],[25.037222222222,31.496388888889],[25.032222222222,31.494722222222],[25.023055555556,31.488888888889],[25.018333333333,31.486944444444],[24.983333333333,31.461944444444],[24.979166666667,31.4575],[24.975,31.455555555556],[24.967222222222,31.4475],[24.962777777778,31.445277777778],[24.951666666667,31.433333333333],[24.944722222222,31.425],[24.913333333333,31.4125],[24.908055555556,31.409722222222],[24.897777777778,31.406111111111],[24.893888888889,31.402222222222],[24.889166666667,31.399166666667],[24.885555555556,31.395],[24.881944444444,31.390555555556],[24.874722222222,31.383888888889],[24.868055555556,31.375],[24.864722222222,31.362222222222],[24.865555555556,31.357222222222],[24.870277777778,31.3],[24.875393333333,31.295960277778],[24.873611111111,31.275277777778],[24.873888888889,31.271944444444],[24.875277777778,31.266944444444],[24.875555555556,31.265],[24.876111111111,31.261388888889],[24.878888888889,31.256666666667],[24.880277777778,31.250833333333],[24.881944444444,31.246111111111],[24.883888888889,31.229722222222],[24.883611111111,31.223611111111],[24.881666666667,31.209444444444],[24.875555555556,31.193055555556],[24.874166666667,31.188083333333],[24.873611111111,31.186666666667],[24.873333333333,31.185555555556],[24.87,31.175],[24.869722222222,31.172777777778],[24.869166666667,31.168333333333],[24.868888888889,31.161944444444],[24.869166666667,31.156388888889],[24.869722222222,31.154444444444],[24.870277777778,31.152222222222],[24.872777777778,31.1475],[24.874166666667,31.1425],[24.875555555556,31.14],[24.876666666667,31.1375],[24.879166666667,31.130833333333],[24.8925,31.087222222222],[24.896111111111,31.0775],[24.896944444444,31.071944444444],[24.8975,31.066111111111],[24.898055555556,31.060833333333],[24.899444444444,31.056666666667],[24.901111111111,31.050833333333],[24.901388888889,31.049166666667],[24.902222222222,31.045],[24.903333333333,31.039444444444],[24.904166666667,31.034444444444],[24.905,31.032222222222],[24.905833333333,31.029444444444],[24.908055555556,31.024444444444],[24.911388888889,31.015],[24.913888888889,31.009722222222],[24.915833333333,31.006944444444],[24.916388888889,31.006111111111],[24.917222222222,31.004722222222],[24.919722222222,31.000555555556],[24.922222222222,30.996944444444],[24.929166666667,30.99],[24.936666666667,30.976666666667],[24.938055555556,30.970833333333],[24.940833333333,30.967222222222],[24.9425,30.961944444444],[24.943611111111,30.957222222222],[24.948611111111,30.941944444444],[24.949166666667,30.936388888889],[24.952777777778,30.926111111111],[24.955277777778,30.921944444444],[24.956388888889,30.916666666667],[24.963888888889,30.903611111111],[24.965555555556,30.898055555556],[24.968055555556,30.893611111111],[24.971388888889,30.882777777778],[24.973888888889,30.879166666667],[24.975277777778,30.874166666667],[24.983611111111,30.861666666667],[24.986111111111,30.856944444444],[24.987222222222,30.855],[24.988611111111,30.851944444444],[24.991388888889,30.847222222222],[24.993611111111,30.843888888889],[24.995277777778,30.838611111111],[25.0125,30.807777777778],[25.015277777778,30.802222222222],[25.018333333333,30.792777777778],[25.018888888889,30.787222222222],[25.016944444444,30.773611111111],[25.014166666667,30.766944444444],[25.0125,30.761944444444],[25.007222222222,30.751111111111],[25.004166666667,30.746388888889],[25.001111111111,30.740277777778],[24.994166666667,30.725833333333],[24.991111111111,30.721388888889],[24.990555555556,30.720277777778],[24.988611111111,30.715277777778],[24.983888888889,30.7],[24.981388888889,30.691944444444],[24.978055555556,30.671944444444],[24.978888888889,30.666111111111],[24.978333333333,30.659166666667],[24.979166666667,30.654166666667],[24.978055555556,30.647777777778],[24.978055555556,30.641388888889],[24.976666666667,30.634722222222],[24.973611111111,30.630277777778],[24.971388888889,30.624722222222],[24.968333333333,30.620277777778],[24.960555555556,30.604722222222],[24.957777777778,30.600555555556],[24.955,30.595],[24.948611111111,30.586111111111],[24.945833333333,30.581666666667],[24.943333333333,30.575555555556],[24.94,30.571944444444],[24.936666666667,30.559722222222],[24.936388888889,30.558055555556],[24.935277777778,30.534166666667],[24.9325,30.521388888889],[24.930277777778,30.517222222222],[24.932262222222,30.511424444444],[24.919722222222,30.497222222222],[24.917222222222,30.490833333333],[24.913888888889,30.487222222222],[24.895277777778,30.461666666667],[24.876666666667,30.4275],[24.873888888889,30.424166666667],[24.848333333333,30.391944444444],[24.8175,30.363055555556],[24.780833333333,30.334166666667],[24.782008888889,30.329575277778],[24.775833333333,30.323611111111],[24.772222222222,30.304166666667],[24.769196111111,30.279021111111],[24.76,30.276111111111],[24.73,30.238611111111],[24.724166666667,30.227777777778],[24.719166666667,30.2175],[24.714166666667,30.2],[24.711666666667,30.194722222222],[24.709722222222,30.188611111111],[24.706666666667,30.168333333333],[24.706388888889,30.155833333333],[24.706944444444,30.149444444444],[24.710277777778,30.14],[24.710555555556,30.139444444444],[24.712777777778,30.135555555556],[24.715277777778,30.1325],[24.722777777778,30.124444444444],[24.726111111111,30.119444444444],[24.733888888889,30.113055555556],[24.747706111111,30.097031388889],[24.783333333333,30],[24.783333333333,30],[24.816840555556,29.913332777778],[24.815668055556,29.794280555556],[24.8366175,29.760050833333],[24.896156944444,29.617239444444],[24.856033333333,29.549978333333],[25.000618333333,29.259177777778],[24.996111111111,29],[24.996111111111,29],[25,22],[25.000542,20.000192],[24,20.000003],[24,19.5],[19,22],[11.5,22],[11.5,23.254167],[11.982572,23.523775],[11.600581,24.252142],[11.433906,24.185478],[11.000553,24.468794],[10.683872,24.568789],[10.483333,24.483333],[10.233333,24.616667],[10.2,24.783333],[10.033333,24.883333],[10.033847,25.335408],[9.383333,26.183333],[9.533828,26.368681],[9.93385,26.535336],[9.93385,26.851986],[9.8,27.266667],[9.967189,27.868592],[9.865203,28.331858],[9.933333,28.966667],[9.8,29.416667],[9.55,29.916667],[9.416667,30.066667],[9.416667,30.166667],[9.583333,30.233333],[9.899469,30.331547],[9.999464,30.464889],[10.24945,30.714903],[10.316669,30.9],[10.3,31.083333],[10.15,31.483333],[10.333333,31.7],[10.566094,31.731622],[10.683333,31.95],[10.833333,32],[10.9,32.133333],[11.5,32.366669],[11.5,34.333333]]]]}},{"type":"Feature","properties":{"id":"OBBB","oceanic":"0","label_lon":"50.275408","label_lat":"27.209287","region":"EMEA","division":"VATMENA"},"geometry":{"type":"MultiPolygon","coordinates":[[[[48.866238,28.236056],[49.130656,27.823578],[49.868346,27.145641],[50.470767,26.583173],[50.387261,26.529306],[50.279667,26.08376],[50.38967,25.781926],[50.56454443799322,25.563594148243],[50.58970340682428,25.588561724539943],[50.709077691266145,25.580003163231048],[50.77143359854028,25.552947972655648],[50.79041148336283,25.552795101111293],[50.81006714978618,25.538271415271403],[50.818369974396056,25.546221440235215],[50.81786163819545,25.565788486111884],[50.78160032255236,25.59192384900407],[50.799900425774105,25.625998230585324],[50.82989226160975,25.633942429441586],[50.841753439623844,25.643413668100575],[50.839042313220624,25.667546652122827],[50.86276466924882,25.695186663180756],[50.853953508438344,25.715339974976743],[50.87225361166009,25.753804999313953],[50.818369974396056,25.891992951727516],[50.848870146432276,26.013269786813034],[50.908176036502766,26.08329735897368],[50.91969832371646,26.230826853682448],[50.998320989409905,26.270339104015626],[51.033571402648285,26.31412028482818],[51.07219918389774,26.362077181181377],[51.20775550405885,26.3991163176042],[51.38601206507068,26.366935449376346],[51.64543297277896,26.23721051173545],[52.969419,25.642596],[53.1,25.816667],[53.427618448867825,25.913088200887856],[53.95,26.066667],[53.95,26.066667],[52.7325,26.439444],[51.73297896177609,26.74413002050408],[51.166667,26.916667],[51.085856,26.970642],[50.916667,27.083333],[50.785288,27.265316],[50.180232,28.050923],[49.66906,28.712181],[48.866238,28.236056]]]]}},{"type":"Feature","properties":{"id":"OKAC","oceanic":"0","label_lon":"48.111389","label_lat":"29.178334","region":"EMEA","division":"VATMENA"},"geometry":{"type":"MultiPolygon","coordinates":[[[[48.433333,28.541111],[47.708333,28.525],[47.65,28.6],[47.6,28.683333],[47.6,28.783333],[47.566667,28.85],[47.466667,29],[46.555278,29.101111],[46.703056,29.250556],[47.006333,29.721647],[47.032561,29.766375],[47.081667,29.851389],[47.155556,30.000278],[47.371389,30.103611],[47.707778,30.103611],[47.924444,30.020278],[48.011667,29.99],[48.076111,30.029444],[48.164444,30.022222],[48.414167,29.852778],[48.749957,29.8528],[49.6675,29.219722],[49.450833,29.003056],[49.66906,28.712181],[48.866238,28.236056],[48.684167,28.544722],[48.433333,28.541111]]]]}},{"type":"Feature","properties":{"id":"OMAE","oceanic":"0","label_lon":"54.187345","label_lat":"24.441124","region":"EMEA","division":"VATMENA"},"geometry":{"type":"MultiPolygon","coordinates":[[[[53.427618448867825,25.913088200887856],[53.08639665609152,26.05042005675917],[53.090463345696364,26.0906021725945],[53.512808990944436,26.20052716655667],[53.90471247616498,26.080540360472877],[53.95,26.066667],[55.333333,25.633333],[55.593921,25.876926],[56.1,26.35],[56.216667,25.6],[56.304901237591636,25.455888207352533],[56.555941800386066,25.451396556089655],[56.556619581874806,25.12598574599775],[56.51017693475317,25.119946909118774],[56.583333,25],[56.498922659636335,24.91589831656717],[56.86162125181639,24.69752798139018],[56.53628613721203,24.359006406068577],[56.207107767557886,24.623774722844672],[55.583333,24],[55.19456698511533,22.70814118296937],[55.132168939551676,22.643213094817835],[52.583333,22.933333],[51.783333,24.05],[52.37311228359392,24.84447800321115],[52.681147308096705,25.257417585792243],[52.33607425137214,25.43119876657511],[52.4821779000794,25.641283316097],[52.77748179080805,25.486987904943323],[52.89359967400086,25.54140844260767],[52.969419,25.642596],[53.1,25.816667],[53.427618448867825,25.913088200887856]]]]}},{"type":"Feature","properties":{"id":"OOMM","oceanic":"0","label_lon":"57.603686","label_lat":"21.094973","region":"EMEA","division":"VATMENA"},"geometry":{"type":"MultiPolygon","coordinates":[[[[56.1,26.35],[56.216667,25.6],[56.498922659636335,24.91589831656717],[56.207107767557886,24.623774722844672],[55.583333,24],[55.19456698511533,22.70814118296937],[55.366331,22.451647],[55.666667,22],[55.016667,20],[52,19],[52.733333,17.366667],[53.066667,16.633333],[53.5,15.666667],[57,17.666667],[60,19.8],[64.49532,23.49615],[61.435292,23.496539],[61.434675,24.661311],[57.5,25],[56.75,25.583333],[56.75,26.166667],[56.45,26.683333],[56.1,26.35]]]]}},{"type":"Feature","properties":{"id":"ORBB","oceanic":"0","label_lon":"43.761655","label_lat":"33.02789","region":"EMEA","division":"VATMENA"},"geometry":{"type":"MultiPolygon","coordinates":[[[[39.201944,32.153889],[39.30095,32.229175],[39.259778,32.3545],[39.043431,32.303008],[38.986017,32.477658],[39.086011,32.501514],[38.793603,33.374642],[41,34.416667],[41.233333,34.783333],[41.383333,35.633333],[41.3,36.35],[41.4,36.516667],[41.816669,36.583333],[42.341667,37.083333],[42.6,37.133333],[42.791667,37.35],[42.925,37.291667],[43.133333,37.35],[43.583333,37.2],[43.883333,37.183333],[44.033333,37.3],[44.233333,37.241667],[44.166667,37.108333],[44.270833,36.933333],[44.630556,37.158333],[44.757369,37.166172],[44.783242,37.04905],[44.883242,36.999047],[44.883244,36.882378],[44.833242,36.832378],[44.833242,36.782378],[45.033247,36.715708],[44.983247,36.532372],[45.116583,36.399036],[45.216586,36.415703],[45.349922,35.965694],[45.566594,35.982361],[45.749933,35.799025],[46.116608,35.832358],[46.149942,35.782358],[46.333281,35.799025],[45.966606,35.682356],[45.966606,35.515686],[46.149944,35.099011],[45.916606,35.099011],[45.849936,34.999011],[45.849936,34.915675],[45.7666,34.915675],[45.649931,34.749006],[45.7166,34.565669],[45.516594,34.615669],[45.433258,34.449],[45.483261,34.315664],[45.549928,34.315664],[45.549931,34.198997],[45.383258,33.965658],[45.766603,33.582319],[45.883272,33.615653],[45.933272,33.548986],[45.833269,33.498983],[45.966606,33.46565],[46.166611,33.165647],[46.033275,33.132311],[46.033275,33.082311],[46.116611,33.065644],[46.083278,32.965642],[46.449953,32.898975],[47.166636,32.4323],[47.299972,32.482303],[47.433311,32.3823],[47.416642,32.348967],[47.549981,32.215631],[47.499978,32.148964],[47.849986,31.782292],[47.683317,31.382286],[47.683317,30.982281],[48.016658,30.982281],[48.016667,30.466667],[48.182892,30.326689],[48.333336,30.2],[48.466667,29.95],[48.566667,29.95],[48.749957,29.8528],[48.414167,29.852778],[48.164444,30.022222],[48.076111,30.029444],[48.011667,29.99],[47.9183,30.022394],[47.912047,30.024864],[47.707778,30.103611],[47.371389,30.103611],[47.155556,30.000278],[47.081667,29.851389],[47.032561,29.766375],[47.006333,29.721647],[46.703058,29.250556],[46.555278,29.101111],[46.433333,29.066669],[44.716667,29.2],[42.083333,31.116667],[41.45,31.366667],[41.354842,31.424158],[40.416667,31.95],[39.201944,32.153889]]]]}},{"type":"Feature","properties":{"id":"ORBB-N","oceanic":"0","label_lon":"43.261135","label_lat":"34.360608055556","region":"EMEA","division":"VATMENA"},"geometry":{"type":"MultiPolygon","coordinates":[[[[41.45,31.366667222222222],[40.41666722222222,31.95],[39.20194416666667,32.153889166666666],[39.30095,32.229175000000005],[39.25977805555556,32.3545],[39.04343111111111,32.30300805555555],[38.98601722222222,32.47765805555556],[39.08601111111111,32.50151416666667],[38.79360305555555,33.37464222222222],[41,34.41666722222222],[41.233333333333334,34.78333333333333],[41.38333333333333,35.63333333333333],[41.3,36.35],[41.4,36.516667222222225],[41.81666916666667,36.583333333333336],[42.34166722222223,37.083333333333336],[42.6,37.13333333333333],[42.79166722222222,37.35],[42.925,37.29166722222222],[43.13333333333333,37.35],[43.583333333333336,37.2],[43.88333333333333,37.18333333333333],[44.03333333333333,37.3],[44.233333333333334,37.241667222222226],[44.16666722222222,37.108333333333334],[44.270833055555556,36.93333333333333],[44.63055611111111,37.15833333333333],[44.75736916666666,37.16617222222222],[44.78324222222222,37.04905],[44.88324222222222,36.999047222222224],[44.883244166666664,36.882378055555556],[44.833242222222225,36.83237805555556],[44.833242222222225,36.782378055555554],[45.03324722222222,36.71570805555556],[44.983247222222225,36.53237222222222],[45.11658305555556,36.39903611111111],[45.21658611111111,36.415703055555554],[45.349922222222226,35.96569416666667],[45.56659416666666,35.98236111111111],[45.74993305555556,35.799025],[46.11660805555556,35.83235805555556],[46.14994222222222,35.782358055555555],[46.33328111111111,35.799025],[45.96660611111111,35.68235611111111],[45.96660611111111,35.51568611111111],[46.149944166666664,35.09901111111111],[45.91660611111111,35.09901111111111],[45.84993611111111,34.99901111111111],[45.84993611111111,34.915675],[45.766666666666666,34.915675],[45.64993111111111,34.749006111111115],[45.7166,34.565669166666666],[45.516594166666664,34.61566916666667],[45.433258055555555,34.449],[45.48326111111111,34.315664166666664],[45.549928055555554,34.315664166666664],[45.54993111111111,34.19899722222222],[45.38325805555556,33.96565805555556],[45.76660305555556,33.58231916666667],[45.883272222222224,33.615653055555555],[45.93327222222222,33.54898611111111],[45.83326916666667,33.498983055555556],[45.254734166666665,33.15226],[45.01239722222222,33.132175000000004],[44.43286805555555,33.114869166666665],[43.47271305555556,33.04202222222222],[42.33552111111111,32.104573055555555],[41.45,31.366667222222222]]]]}},{"type":"Feature","properties":{"id":"OSTT","oceanic":"0","label_lon":"38.9125","label_lat":"34.779167","region":"EMEA","division":"VATMENA"},"geometry":{"type":"MultiPolygon","coordinates":[[[[35.708333,34.638889],[35.65,34.783333],[35.633333,34.916667],[35.666667,35.066667],[35.483333,35.566667],[35.533333,35.75],[35.6,35.883333],[35.666667,35.916667],[35.933333,35.9],[36.183333,35.775],[36.241667,35.933333],[36.425,35.983333],[36.416667,36.216667],[36.6,36.166667],[36.716667,36.2625],[36.6,36.466667],[36.658333,36.825],[37.066667,36.604167],[37.5,36.625],[38.25,36.883333],[38.5,36.816667],[38.7,36.691667],[39.233333,36.641667],[39.833333,36.733333],[40.816667,37.0875],[41.25,37.041667],[41.6,37.058333],[42.083333,37.170833],[42.216667,37.258333],[42.341667,37.083333],[41.816669,36.583333],[41.4,36.516667],[41.3,36.35],[41.383333,35.633333],[41.233333,34.783333],[41,34.416667],[38.793603,33.374642],[36.908,32.367],[36.833333,32.3],[36.816817,32.314039],[36.391839,32.386633],[36.191667,32.529233],[36.080803,32.537011],[36.016667,32.666667],[35.908347,32.721089],[35.791667,32.75],[35.563125,32.644858],[35.667175,32.780339],[35.616047,32.897917],[35.590222,33.016742],[35.663489,33.160325],[35.660417,33.235689],[35.616044,33.247928],[35.950306,33.534364],[36.066969,33.584361],[35.933639,33.651028],[36.016969,33.767692],[36.066969,33.817692],[36.166967,33.851025],[36.250297,33.851025],[36.383628,33.838525],[36.283631,33.917689],[36.333631,33.967689],[36.583625,34.28435],[36.333631,34.517681],[36.433631,34.584344],[35.708333,34.638889]]]]}},{"type":"Feature","properties":{"id":"OTDF","oceanic":"0","label_lon":"51.903699","label_lat":"25.648254","region":"EMEA","division":"VATMENA"},"geometry":{"type":"MultiPolygon","coordinates":[[[[50.564544,25.563594],[50.589703,25.588561],[50.709077,25.580003],[50.771433,25.552947],[50.790411,25.552795],[50.810067,25.538271],[50.818369,25.546221],[50.817861,25.565788],[50.7816,25.591923],[50.7999,25.625998],[50.829892,25.633942],[50.841753,25.643413],[50.839042,25.667546],[50.862764,25.695186],[50.853953,25.715339],[50.872253,25.753804],[50.818369,25.891992],[50.84887,26.013269],[50.908176,26.083297],[50.919698,26.230826],[50.99832,26.270339],[51.033571,26.31412],[51.072199,26.362077],[51.207755,26.399116],[51.386012,26.366935],[51.645432,26.23721],[51.732978,26.74413],[52.7325,26.439444],[53.512808,26.200527],[53.95,26.066667],[53.427618,25.913088],[53.1,25.816667],[52.969419,25.642596],[52.670133,25.242676],[52.373112,24.844478],[52.000759,24.815088],[51.57372,24.704721],[51.498266,24.664771],[51.371401,24.52995],[51.20341,24.47076],[50.938347,24.530437],[50.909167,24.581389],[50.859444,24.673333],[50.81378,24.755556],[50.709524,25.044813],[50.648144,25.328995],[50.597387,25.52259],[50.564544,25.563594]]]]}},{"type":"Feature","properties":{"id":"UKBV","oceanic":"0","label_lon":"30.941667","label_lat":"50.0655","region":"EMEA","division":"VATEUD"},"geometry":{"type":"MultiPolygon","coordinates":[[[[34.45,51.233333],[34.216667,50.828333],[33.885,50.213333],[33.616667,49.313333],[33.366667,48.95],[33.323333,48.495],[32.89,48.125],[32.833333,47.766667],[29.528333,48.236667],[29.27856389,47.88872306],[29.20440694,47.88503889],[29.17419389,47.99359806],[29.11926306,47.99359806],[29.05609111,47.94394694],[28.92150889,47.96418111],[28.83361806,48.13310111],[28.56994611,48.17707611],[28.50952111,48.15326111],[28.42712389,48.17158111],[28.37493889,48.17158111],[28.36669889,48.20820194],[28.34198,48.24662611],[28.19641111,48.21003194],[28.185425,48.25577],[28.185425,48.25577],[28.14422611,48.26308389],[28.09478806,48.295985],[28.05084194,48.32521306],[27.95883194,48.32703889],[27.88330111,48.37176],[27.87918111,48.39820889],[27.82805556,48.42166667],[27.85,49.761667],[27.787778,50.806944],[27.433333,50.85],[27.75,51.383333],[28.466667,51.55],[29.083333,51.666667],[29.583333,51.466667],[30.133333,51.483333],[30.316667,51.616667],[30.3,51.783333],[30.383333,52.133333],[30.8,52.25],[31.183333,52.283333],[31.683333,52.133333],[31.783333,52.133333],[31.793333,52.115],[31.821636,52.096675],[31.911819,52.080917],[31.944117,52.060092],[31.974483,52.021131],[32.03235,52.014828],[32.198647,52.059372],[32.303361,52.085875],[32.358364,52.137442],[32.357833,52.188367],[32.352142,52.217833],[32.378386,52.258739],[32.377272,52.29615],[32.400764,52.316203],[32.436511,52.316297],[32.590711,52.303144],[32.674431,52.278725],[32.743964,52.255469],[32.828189,52.267503],[32.932475,52.257858],[33.095931,52.337333],[33.249867,52.361753],[33.444119,52.364333],[33.481069,52.353542],[33.741486,52.356311],[33.853761,52.322681],[33.923664,52.250242],[33.976122,52.193253],[34.065206,52.162078],[34.116236,52.141972],[34.110322,52.112664],[34.074797,52.061381],[34.097714,51.996414],[34.178078,51.905967],[34.227353,51.891069],[34.241678,51.861847],[34.268033,51.789656],[34.299547,51.770747],[34.33335,51.768456],[34.370019,51.791375],[34.399814,51.790803],[34.432472,51.779342],[34.441875,51.748797],[34.431325,51.723764],[34.393511,51.716317],[34.361425,51.716317],[34.17235,51.687669],[34.135681,51.677928],[34.107033,51.664178],[34.105314,51.642978],[34.122503,51.623497],[34.198706,51.575369],[34.236519,51.516928],[34.219903,51.428119],[34.222197,51.392022],[34.241103,51.375981],[34.297828,51.354781],[34.302983,51.337592],[34.283503,51.30035],[34.261158,51.281442],[34.257147,51.263108],[34.264594,51.243628],[34.278347,51.228731],[34.325903,51.227583],[34.361997,51.240761],[34.384344,51.2442],[34.428728,51.242419],[34.45,51.233333]]]]}},{"type":"Feature","properties":{"id":"UKLV","oceanic":"0","label_lon":"24.987917","label_lat":"49.807958","region":"EMEA","division":"VATEUD"},"geometry":{"type":"MultiPolygon","coordinates":[[[[24.966667,51.883333],[27.75,51.383333],[27.433333,50.85],[27.787778,50.806944],[27.85,49.761667],[27.82805556,48.42166667],[27.739105,48.45744111],[27.65396111,48.44195611],[27.60589611,48.48566611],[27.58941694,48.49476806],[27.46719389,48.44742194],[27.38067611,48.41188389],[27.37243694,48.44468889],[27.32711806,48.44742194],[27.28591889,48.37449694],[27.13073694,48.378145],[27.07992611,48.43466806],[27.01950111,48.42282111],[27.04147306,48.378145],[26.92337,48.36537389],[26.87255889,48.41826389],[26.70639,48.40641389],[26.68853806,48.35807389],[26.635458,48.261775],[26.632678,48.249275],[26.616011,48.249275],[26.624344,48.240942],[26.591011,48.246497],[26.574344,48.220108],[26.553511,48.227053],[26.549344,48.215939],[26.499342,48.213161],[26.466008,48.215939],[26.452119,48.206217],[26.381283,48.18955],[26.378506,48.199272],[26.364617,48.188161],[26.349339,48.195106],[26.341006,48.186772],[26.316003,48.182606],[26.324339,48.161772],[26.282672,48.090936],[26.232669,48.049267],[26.199336,47.999264],[26.099333,47.989542],[26.074333,47.999264],[25.966061,47.974322],[25.932661,47.982597],[25.899328,47.965928],[25.849328,47.970097],[25.782658,47.940928],[25.632653,47.949261],[25.465983,47.932592],[25.382647,47.932592],[25.232644,47.899258],[25.115975,47.765919],[24.999306,47.732583],[24.883333,47.733333],[24.883333,47.755556],[24.832633,47.824253],[24.790967,47.832586],[24.778464,47.840919],[24.757631,47.836753],[24.682628,47.865919],[24.674294,47.899253],[24.632625,47.949253],[24.574292,47.972867],[24.515956,47.960364],[24.449286,47.982589],[24.399286,47.965919],[24.382619,47.932586],[24.365953,47.924253],[24.332617,47.932586],[24.232617,47.903417],[24.203447,47.92425],[24.115944,47.92425],[24.065944,47.957583],[23.999275,47.971472],[23.949275,47.971472],[23.865939,47.940917],[23.815936,47.990917],[23.765936,47.99925],[23.699267,47.999267],[23.665933,47.990917],[23.621567,48.00305],[23.530672,48.00305],[23.499261,47.982583],[23.415925,48.007583],[23.343333,48.026667],[23.332589,48.039528],[23.303422,48.046472],[23.286753,48.057583],[23.299253,48.075639],[23.278419,48.08675],[23.271475,48.102028],[23.249253,48.092306],[23.207583,48.096472],[23.182583,48.120083],[23.132583,48.08675],[23.11175,48.028414],[23.103417,48.020081],[23.09925,48.007581],[23.052025,47.999247],[23.032581,47.990911],[22.932578,48.024247],[22.946467,47.965911],[22.901389,47.959722],[22.85,47.991667],[22.891667,48.041667],[22.825,48.116667],[22.783333,48.120833],[22.725,48.116667],[22.683333,48.095833],[22.604167,48.104167],[22.6,48.15],[22.570833,48.183333],[22.5875,48.195833],[22.541667,48.216667],[22.5,48.258333],[22.465894,48.246472],[22.404167,48.252778],[22.391667,48.241667],[22.379167,48.25],[22.344444,48.283333],[22.344444,48.304167],[22.316667,48.333333],[22.325,48.363889],[22.274222,48.361753],[22.247831,48.390919],[22.279167,48.4125],[22.225,48.425],[22.183333,48.415278],[22.125833,48.378889],[22.131944,48.39],[22.158333,48.409722],[22.166667,48.579167],[22.216667,48.625],[22.2875,48.675],[22.358333,48.7],[22.379167,48.731944],[22.35,48.766667],[22.3875,48.808333],[22.383333,48.866667],[22.420833,48.888889],[22.425,48.9375],[22.483333,48.991667],[22.541667,49.008333],[22.554167,49.041667],[22.55,49.066667],[22.583333,49.1],[22.683333,49.05],[22.833333,49.016667],[22.9,49.083333],[22.8,49.133333],[22.733333,49.233333],[22.8,49.3],[22.8,49.333333],[22.666667,49.533333],[23.233333,50.05],[23.416667,50.166667],[23.583333,50.283333],[23.683333,50.333333],[23.716667,50.383333],[23.783333,50.416667],[23.916667,50.416667],[24.05,50.45],[24.1,50.633333],[24.066667,50.716667],[24.033333,50.716667],[24.033333,50.766667],[23.966667,50.766667],[23.966667,50.833333],[24.083333,50.833333],[24.15,50.866667],[23.983333,50.95],[23.933333,51],[23.916667,51.066667],[23.866667,51.1],[23.866667,51.15],[23.75,51.216667],[23.733333,51.266667],[23.666667,51.283333],[23.65,51.333333],[23.7,51.416667],[23.65,51.45],[23.666667,51.483333],[23.616667,51.5],[24.966667,51.883333]]]]}},{"type":"Feature","properties":{"id":"ZAAQ"},"geometry":{"type":"MultiPolygon","coordinates":[[[[-170,-60],[-169,-60],[-169,-59],[-170,-59],[-170,-60]]]]}},{"type":"Feature","properties":{"id":"ZABQ"},"geometry":{"type":"MultiPolygon","coordinates":[[[[-167.5,-59],[-166.5,-59],[-166.5,-58],[-167.5,-58],[-167.5,-59]]]]}},{"type":"Feature","properties":{"id":"ZACQ"},"geometry":{"type":"MultiPolygon","coordinates":[[[[-165,-58],[-164,-58],[-164,-57],[-165,-57],[-165,-58]]]]}},{"type":"Feature","properties":{"id":"ZADQ"},"geometry":{"type":"MultiPolygon","coordinates":[[[[-162.5,-57],[-161.5,-57],[-161.5,-56],[-162.5,-56],[-162.5,-57]]]]}},{"type":"Feature","properties":{"id":"ZAEQ"},"geometry":{"type":"MultiPolygon","coordinates":[[[[-160,-56],[-159,-56],[-159,-55],[-160,-55],[-160,-56]]]]}},{"type":"Feature","properties":{"id":"ZAFQ"},"geometry":{"type":"MultiPolygon","coordinates":[[[[-157.5,-55],[-156.5,-55],[-156.5,-54],[-157.5,-54],[-157.5,-55]]]]}},{"type":"Feature","properties":{"id":"ZAGQ"},"geometry":{"type":"MultiPolygon","coordinates":[[[[-155,-54],[-154,-54],[-154,-53],[-155,-53],[-155,-54]]]]}},{"type":"Feature","properties":{"id":"ZAHQ"},"geometry":{"type":"MultiPolygon","coordinates":[[[[-152.5,-53],[-151.5,-53],[-151.5,-52],[-152.5,-52],[-152.5,-53]]]]}},{"type":"Feature","properties":{"id":"ZAIQ"},"geometry":{"type":"MultiPolygon","coordinates":[[[[-150,-52],[-149,-52],[-149,-51],[-150,-51],[-150,-52]]]]}},{"type":"Feature","properties":{"id":"ZAJQ"},"geometry":{"type":"MultiPolygon","coordinates":[[[[-147.5,-51],[-146.5,-51],[-146.5,-50],[-147.5,-50],[-147.5,-51]]]]}},{"type":"Feature","properties":{"id":"ZAKQ"},"geometry":{"type":"MultiPolygon","coordinates":[[[[-145,-50],[-144,-50],[-144,-49],[-145,-49],[-145,-50]]]]}},{"type":"Feature","properties":{"id":"ZALQ"},"geometry":{"type":"MultiPolygon","coordinates":[[[[-142.5,-49],[-141.5,-49],[-141.5,-48],[-142.5,-48],[-142.5,-49]]]]}},{"type":"Feature","properties":{"id":"ZAMQ"},"geometry":{"type":"MultiPolygon","coordinates":[[[[-140,-48],[-139,-48],[-139,-47],[-140,-47],[-140,-48]]]]}},{"type":"Feature","properties":{"id":"ZANQ"},"geometry":{"type":"MultiPolygon","coordinates":[[[[-137.5,-47],[-136.5,-47],[-136.5,-46],[-137.5,-46],[-137.5,-47]]]]}},{"type":"Feature","properties":{"id":"ZAOQ"},"geometry":{"type":"MultiPolygon","coordinates":[[[[-135,-46],[-134,-46],[-134,-45],[-135,-45],[-135,-46]]]]}},{"type":"Feature","properties":{"id":"ZAPQ"},"geometry":{"type":"MultiPolygon","coordinates":[[[[-132.5,-45],[-131.5,-45],[-131.5,-44],[-132.5,-44],[-132.5,-45]]]]}},{"type":"Feature","properties":{"id":"ZAQQ"},"geometry":{"type":"MultiPolygon","coordinates":[[[[-130,-44],[-129,-44],[-129,-43],[-130,-43],[-130,-44]]]]}},{"type":"Feature","properties":{"id":"ZARQ"},"geometry":{"type":"MultiPolygon","coordinates":[[[[-127.5,-43],[-126.5,-43],[-126.5,-42],[-127.5,-42],[-127.5,-43]]]]}},{"type":"Feature","properties":{"id":"ZASQ"},"geometry":{"type":"MultiPolygon","coordinates":[[[[-125,-42],[-124,-42],[-124,-41],[-125,-41],[-125,-42]]]]}},{"type":"Feature","properties":{"id":"ZATQ"},"geometry":{"type":"MultiPolygon","coordinates":[[[[-122.5,-41],[-121.5,-41],[-121.5,-40],[-122.5,-40],[-122.5,-41]]]]}},{"type":"Feature","properties":{"id":"ZAUQ"},"geometry":{"type":"MultiPolygon","coordinates":[[[[-120,-40],[-119,-40],[-119,-39],[-120,-39],[-120,-40]]]]}},{"type":"Feature","properties":{"id":"ZAVQ"},"geometry":{"type":"MultiPolygon","coordinates":[[[[-117.5,-39],[-116.5,-39],[-116.5,-38],[-117.5,-38],[-117.5,-39]]]]}},{"type":"Feature","properties":{"id":"ZAWQ"},"geometry":{"type":"MultiPolygon","coordinates":[[[[-115,-38],[-114,-38],[-114,-37],[-115,-37],[-115,-38]]]]}},{"type":"Feature","properties":{"id":"ZAXQ"},"geometry":{"type":"MultiPolygon","coordinates":[[[[-112.5,-37],[-111.5,-37],[-111.5,-36],[-112.5,-36],[-112.5,-37]]]]}},{"type":"Feature","properties":{"id":"ZAYQ"},"geometry":{"type":"MultiPolygon","coordinates":[[[[-110,-36],[-109,-36],[-109,-35],[-110,-35],[-110,-36]]]]}},{"type":"Feature","properties":{"id":"ZAZQ"},"geometry":{"type":"MultiPolygon","coordinates":[[[[-107.5,-35],[-106.5,-35],[-106.5,-34],[-107.5,-34],[-107.5,-35]]]]}},{"type":"Feature","properties":{"id":"ZBAQ"},"geometry":{"type":"MultiPolygon","coordinates":[[[[-105,-34],[-104,-34],[-104,-33],[-105,-33],[-105,-34]]]]}},{"type":"Feature","properties":{"id":"ZBBQ"},"geometry":{"type":"MultiPolygon","coordinates":[[[[-102.5,-33],[-101.5,-33],[-101.5,-32],[-102.5,-32],[-102.5,-33]]]]}},{"type":"Feature","properties":{"id":"ZBCQ"},"geometry":{"type":"MultiPolygon","coordinates":[[[[-100,-32],[-99,-32],[-99,-31],[-100,-31],[-100,-32]]]]}},{"type":"Feature","properties":{"id":"ZBDQ"},"geometry":{"type":"MultiPolygon","coordinates":[[[[-97.5,-31],[-96.5,-31],[-96.5,-30],[-97.5,-30],[-97.5,-31]]]]}},{"type":"Feature","properties":{"id":"ZBEQ"},"geometry":{"type":"MultiPolygon","coordinates":[[[[-95,-30],[-94,-30],[-94,-29],[-95,-29],[-95,-30]]]]}},{"type":"Feature","properties":{"id":"ZBFQ"},"geometry":{"type":"MultiPolygon","coordinates":[[[[-92.5,-29],[-91.5,-29],[-91.5,-28],[-92.5,-28],[-92.5,-29]]]]}},{"type":"Feature","properties":{"id":"ZBGQ"},"geometry":{"type":"MultiPolygon","coordinates":[[[[-90,-28],[-89,-28],[-89,-27],[-90,-27],[-90,-28]]]]}},{"type":"Feature","properties":{"id":"ZBHQ"},"geometry":{"type":"MultiPolygon","coordinates":[[[[-87.5,-27],[-86.5,-27],[-86.5,-26],[-87.5,-26],[-87.5,-27]]]]}},{"type":"Feature","properties":{"id":"ZBIQ"},"geometry":{"type":"MultiPolygon","coordinates":[[[[-85,-26],[-84,-26],[-84,-25],[-85,-25],[-85,-26]]]]}},{"type":"Feature","properties":{"id":"ZBJQ"},"geometry":{"type":"MultiPolygon","coordinates":[[[[-82.5,-25],[-81.5,-25],[-81.5,-24],[-82.5,-24],[-82.5,-25]]]]}},{"type":"Feature","properties":{"id":"ZBKQ"},"geometry":{"type":"MultiPolygon","coordinates":[[[[-80,-24],[-79,-24],[-79,-23],[-80,-23],[-80,-24]]]]}},{"type":"Feature","properties":{"id":"ZBLQ"},"geometry":{"type":"MultiPolygon","coordinates":[[[[-77.5,-23],[-76.5,-23],[-76.5,-22],[-77.5,-22],[-77.5,-23]]]]}},{"type":"Feature","properties":{"id":"ZBMQ"},"geometry":{"type":"MultiPolygon","coordinates":[[[[-75,-22],[-74,-22],[-74,-21],[-75,-21],[-75,-22]]]]}},{"type":"Feature","properties":{"id":"ZBNQ"},"geometry":{"type":"MultiPolygon","coordinates":[[[[-72.5,-21],[-71.5,-21],[-71.5,-20],[-72.5,-20],[-72.5,-21]]]]}},{"type":"Feature","properties":{"id":"ZBOQ"},"geometry":{"type":"MultiPolygon","coordinates":[[[[-70,-60],[-69,-60],[-69,-59],[-70,-59],[-70,-60]]]]}},{"type":"Feature","properties":{"id":"ZBPQ"},"geometry":{"type":"MultiPolygon","coordinates":[[[[-67.5,-59],[-66.5,-59],[-66.5,-58],[-67.5,-58],[-67.5,-59]]]]}},{"type":"Feature","properties":{"id":"ZBQQ"},"geometry":{"type":"MultiPolygon","coordinates":[[[[-65,-58],[-64,-58],[-64,-57],[-65,-57],[-65,-58]]]]}},{"type":"Feature","properties":{"id":"ZBRQ"},"geometry":{"type":"MultiPolygon","coordinates":[[[[-62.5,-57],[-61.5,-57],[-61.5,-56],[-62.5,-56],[-62.5,-57]]]]}},{"type":"Feature","properties":{"id":"ZBSQ"},"geometry":{"type":"MultiPolygon","coordinates":[[[[-60,-56],[-59,-56],[-59,-55],[-60,-55],[-60,-56]]]]}},{"type":"Feature","properties":{"id":"ZBTQ"},"geometry":{"type":"MultiPolygon","coordinates":[[[[-57.5,-55],[-56.5,-55],[-56.5,-54],[-57.5,-54],[-57.5,-55]]]]}},{"type":"Feature","properties":{"id":"ZBUQ"},"geometry":{"type":"MultiPolygon","coordinates":[[[[-55,-54],[-54,-54],[-54,-53],[-55,-53],[-55,-54]]]]}},{"type":"Feature","properties":{"id":"ZBVQ"},"geometry":{"type":"MultiPolygon","coordinates":[[[[-52.5,-53],[-51.5,-53],[-51.5,-52],[-52.5,-52],[-52.5,-53]]]]}},{"type":"Feature","properties":{"id":"ZBWQ"},"geometry":{"type":"MultiPolygon","coordinates":[[[[-50,-52],[-49,-52],[-49,-51],[-50,-51],[-50,-52]]]]}},{"type":"Feature","properties":{"id":"ZBXQ"},"geometry":{"type":"MultiPolygon","coordinates":[[[[-47.5,-51],[-46.5,-51],[-46.5,-50],[-47.5,-50],[-47.5,-51]]]]}},{"type":"Feature","properties":{"id":"ZBYQ"},"geometry":{"type":"MultiPolygon","coordinates":[[[[-45,-50],[-44,-50],[-44,-49],[-45,-49],[-45,-50]]]]}},{"type":"Feature","properties":{"id":"ZBZQ"},"geometry":{"type":"MultiPolygon","coordinates":[[[[-42.5,-49],[-41.5,-49],[-41.5,-48],[-42.5,-48],[-42.5,-49]]]]}},{"type":"Feature","properties":{"id":"ZCAQ"},"geometry":{"type":"MultiPolygon","coordinates":[[[[-40,-48],[-39,-48],[-39,-47],[-40,-47],[-40,-48]]]]}},{"type":"Feature","properties":{"id":"ZCBQ"},"geometry":{"type":"MultiPolygon","coordinates":[[[[-37.5,-47],[-36.5,-47],[-36.5,-46],[-37.5,-46],[-37.5,-47]]]]}},{"type":"Feature","properties":{"id":"ZCCQ"},"geometry":{"type":"MultiPolygon","coordinates":[[[[-35,-46],[-34,-46],[-34,-45],[-35,-45],[-35,-46]]]]}},{"type":"Feature","properties":{"id":"ZCDQ"},"geometry":{"type":"MultiPolygon","coordinates":[[[[-32.5,-45],[-31.5,-45],[-31.5,-44],[-32.5,-44],[-32.5,-45]]]]}},{"type":"Feature","properties":{"id":"ZCEQ"},"geometry":{"type":"MultiPolygon","coordinates":[[[[-30,-44],[-29,-44],[-29,-43],[-30,-43],[-30,-44]]]]}},{"type":"Feature","properties":{"id":"ZCFQ"},"geometry":{"type":"MultiPolygon","coordinates":[[[[-27.5,-43],[-26.5,-43],[-26.5,-42],[-27.5,-42],[-27.5,-43]]]]}},{"type":"Feature","properties":{"id":"ZCGQ"},"geometry":{"type":"MultiPolygon","coordinates":[[[[-25,-42],[-24,-42],[-24,-41],[-25,-41],[-25,-42]]]]}},{"type":"Feature","properties":{"id":"ZCHQ"},"geometry":{"type":"MultiPolygon","coordinates":[[[[-22.5,-41],[-21.5,-41],[-21.5,-40],[-22.5,-40],[-22.5,-41]]]]}},{"type":"Feature","properties":{"id":"ZCIQ"},"geometry":{"type":"MultiPolygon","coordinates":[[[[-20,-40],[-19,-40],[-19,-39],[-20,-39],[-20,-40]]]]}},{"type":"Feature","properties":{"id":"ZCJQ"},"geometry":{"type":"MultiPolygon","coordinates":[[[[-17.5,-39],[-16.5,-39],[-16.5,-38],[-17.5,-38],[-17.5,-39]]]]}},{"type":"Feature","properties":{"id":"ZCKQ"},"geometry":{"type":"MultiPolygon","coordinates":[[[[-15,-38],[-14,-38],[-14,-37],[-15,-37],[-15,-38]]]]}},{"type":"Feature","properties":{"id":"ZCLQ"},"geometry":{"type":"MultiPolygon","coordinates":[[[[-12.5,-37],[-11.5,-37],[-11.5,-36],[-12.5,-36],[-12.5,-37]]]]}},{"type":"Feature","properties":{"id":"ZCMQ"},"geometry":{"type":"MultiPolygon","coordinates":[[[[-10,-36],[-9,-36],[-9,-35],[-10,-35],[-10,-36]]]]}},{"type":"Feature","properties":{"id":"ZCNQ"},"geometry":{"type":"MultiPolygon","coordinates":[[[[-7.5,-35],[-6.5,-35],[-6.5,-34],[-7.5,-34],[-7.5,-35]]]]}},{"type":"Feature","properties":{"id":"ZCOQ"},"geometry":{"type":"MultiPolygon","coordinates":[[[[-5,-34],[-4,-34],[-4,-33],[-5,-33],[-5,-34]]]]}},{"type":"Feature","properties":{"id":"ZCPQ"},"geometry":{"type":"MultiPolygon","coordinates":[[[[-2.5,-33],[-1.5,-33],[-1.5,-32],[-2.5,-32],[-2.5,-33]]]]}},{"type":"Feature","properties":{"id":"ZCQQ"},"geometry":{"type":"MultiPolygon","coordinates":[[[[0,-32],[1,-32],[1,-31],[0,-31],[0,-32]]]]}},{"type":"Feature","properties":{"id":"ZCRQ"},"geometry":{"type":"MultiPolygon","coordinates":[[[[2.5,-31],[3.5,-31],[3.5,-30],[2.5,-30],[2.5,-31]]]]}},{"type":"Feature","properties":{"id":"ZCSQ"},"geometry":{"type":"MultiPolygon","coordinates":[[[[5,-30],[6,-30],[6,-29],[5,-29],[5,-30]]]]}},{"type":"Feature","properties":{"id":"ZCTQ"},"geometry":{"type":"MultiPolygon","coordinates":[[[[7.5,-29],[8.5,-29],[8.5,-28],[7.5,-28],[7.5,-29]]]]}},{"type":"Feature","properties":{"id":"ZCUQ"},"geometry":{"type":"MultiPolygon","coordinates":[[[[10,-28],[11,-28],[11,-27],[10,-27],[10,-28]]]]}},{"type":"Feature","properties":{"id":"ZCVQ"},"geometry":{"type":"MultiPolygon","coordinates":[[[[12.5,-27],[13.5,-27],[13.5,-26],[12.5,-26],[12.5,-27]]]]}},{"type":"Feature","properties":{"id":"ZCWQ"},"geometry":{"type":"MultiPolygon","coordinates":[[[[15,-26],[16,-26],[16,-25],[15,-25],[15,-26]]]]}},{"type":"Feature","properties":{"id":"ZCXQ"},"geometry":{"type":"MultiPolygon","coordinates":[[[[17.5,-25],[18.5,-25],[18.5,-24],[17.5,-24],[17.5,-25]]]]}},{"type":"Feature","properties":{"id":"ZCYQ"},"geometry":{"type":"MultiPolygon","coordinates":[[[[20,-24],[21,-24],[21,-23],[20,-23],[20,-24]]]]}},{"type":"Feature","properties":{"id":"ZCZQ"},"geometry":{"type":"MultiPolygon","coordinates":[[[[22.5,-23],[23.5,-23],[23.5,-22],[22.5,-22],[22.5,-23]]]]}},{"type":"Feature","properties":{"id":"ZDAQ"},"geometry":{"type":"MultiPolygon","coordinates":[[[[25,-22],[26,-22],[26,-21],[25,-21],[25,-22]]]]}},{"type":"Feature","properties":{"id":"ZDBQ"},"geometry":{"type":"MultiPolygon","coordinates":[[[[27.5,-21],[28.5,-21],[28.5,-20],[27.5,-20],[27.5,-21]]]]}},{"type":"Feature","properties":{"id":"ZDCQ"},"geometry":{"type":"MultiPolygon","coordinates":[[[[30,-60],[31,-60],[31,-59],[30,-59],[30,-60]]]]}},{"type":"Feature","properties":{"id":"ZDDQ"},"geometry":{"type":"MultiPolygon","coordinates":[[[[32.5,-59],[33.5,-59],[33.5,-58],[32.5,-58],[32.5,-59]]]]}},{"type":"Feature","properties":{"id":"ZDEQ"},"geometry":{"type":"MultiPolygon","coordinates":[[[[35,-58],[36,-58],[36,-57],[35,-57],[35,-58]]]]}},{"type":"Feature","properties":{"id":"ZDFQ"},"geometry":{"type":"MultiPolygon","coordinates":[[[[37.5,-57],[38.5,-57],[38.5,-56],[37.5,-56],[37.5,-57]]]]}},{"type":"Feature","properties":{"id":"ZDGQ"},"geometry":{"type":"MultiPolygon","coordinates":[[[[40,-56],[41,-56],[41,-55],[40,-55],[40,-56]]]]}},{"type":"Feature","properties":{"id":"ZDHQ"},"geometry":{"type":"MultiPolygon","coordinates":[[[[42.5,-55],[43.5,-55],[43.5,-54],[42.5,-54],[42.5,-55]]]]}},{"type":"Feature","properties":{"id":"ZDIQ"},"geometry":{"type":"MultiPolygon","coordinates":[[[[45,-54],[46,-54],[46,-53],[45,-53],[45,-54]]]]}},{"type":"Feature","properties":{"id":"ZDJQ"},"geometry":{"type":"MultiPolygon","coordinates":[[[[47.5,-53],[48.5,-53],[48.5,-52],[47.5,-52],[47.5,-53]]]]}},{"type":"Feature","properties":{"id":"ZDKQ"},"geometry":{"type":"MultiPolygon","coordinates":[[[[50,-52],[51,-52],[51,-51],[50,-51],[50,-52]]]]}},{"type":"Feature","properties":{"id":"ZDLQ"},"geometry":{"type":"MultiPolygon","coordinates":[[[[52.5,-51],[53.5,-51],[53.5,-50],[52.5,-50],[52.5,-51]]]]}},{"type":"Feature","properties":{"id":"ZDMQ"},"geometry":{"type":"MultiPolygon","coordinates":[[[[55,-50],[56,-50],[56,-49],[55,-49],[55,-50]]]]}},{"type":"Feature","properties":{"id":"ZDNQ"},"geometry":{"type":"MultiPolygon","coordinates":[[[[57.5,-49],[58.5,-49],[58.5,-48],[57.5,-48],[57.5,-49]]]]}},{"type":"Feature","properties":{"id":"ZDOQ"},"geometry":{"type":"MultiPolygon","coordinates":[[[[60,-48],[61,-48],[61,-47],[60,-47],[60,-48]]]]}},{"type":"Feature","properties":{"id":"ZDPQ"},"geometry":{"type":"MultiPolygon","coordinates":[[[[62.5,-47],[63.5,-47],[63.5,-46],[62.5,-46],[62.5,-47]]]]}},{"type":"Feature","properties":{"id":"ZDQQ"},"geometry":{"type":"MultiPolygon","coordinates":[[[[65,-46],[66,-46],[66,-45],[65,-45],[65,-46]]]]}},{"type":"Feature","properties":{"id":"ZDRQ"},"geometry":{"type":"MultiPolygon","coordinates":[[[[67.5,-45],[68.5,-45],[68.5,-44],[67.5,-44],[67.5,-45]]]]}},{"type":"Feature","properties":{"id":"ZDSQ"},"geometry":{"type":"MultiPolygon","coordinates":[[[[70,-44],[71,-44],[71,-43],[70,-43],[70,-44]]]]}},{"type":"Feature","properties":{"id":"ZDTQ"},"geometry":{"type":"MultiPolygon","coordinates":[[[[72.5,-43],[73.5,-43],[73.5,-42],[72.5,-42],[72.5,-43]]]]}},{"type":"Feature","properties":{"id":"ZDUQ"},"geometry":{"type":"MultiPolygon","coordinates":[[[[75,-42],[76,-42],[76,-41],[75,-41],[75,-42]]]]}},{"type":"Feature","properties":{"id":"ZDVQ"},"geometry":{"type":"MultiPolygon","coordinates":[[[[77.5,-41],[78.5,-41],[78.5,-40],[77.5,-40],[77.5,-41]]]]}},{"type":"Feature","properties":{"id":"ZDWQ"},"geometry":{"type":"MultiPolygon","coordinates":[[[[80,-40],[81,-40],[81,-39],[80,-39],[80,-40]]]]}},{"type":"Feature","properties":{"id":"ZDXQ"},"geometry":{"type":"MultiPolygon","coordinates":[[[[82.5,-39],[83.5,-39],[83.5,-38],[82.5,-38],[82.5,-39]]]]}},{"type":"Feature","properties":{"id":"ZDYQ"},"geometry":{"type":"MultiPolygon","coordinates":[[[[85,-38],[86,-38],[86,-37],[85,-37],[85,-38]]]]}},{"type":"Feature","properties":{"id":"ZDZQ"},"geometry":{"type":"MultiPolygon","coordinates":[[[[87.5,-37],[88.5,-37],[88.5,-36],[87.5,-36],[87.5,-37]]]]}},{"type":"Feature","properties":{"id":"ZEAQ"},"geometry":{"type":"MultiPolygon","coordinates":[[[[90,-36],[91,-36],[91,-35],[90,-35],[90,-36]]]]}},{"type":"Feature","properties":{"id":"ZEBQ"},"geometry":{"type":"MultiPolygon","coordinates":[[[[92.5,-35],[93.5,-35],[93.5,-34],[92.5,-34],[92.5,-35]]]]}},{"type":"Feature","properties":{"id":"ZECQ"},"geometry":{"type":"MultiPolygon","coordinates":[[[[95,-34],[96,-34],[96,-33],[95,-33],[95,-34]]]]}},{"type":"Feature","properties":{"id":"ZEDQ"},"geometry":{"type":"MultiPolygon","coordinates":[[[[97.5,-33],[98.5,-33],[98.5,-32],[97.5,-32],[97.5,-33]]]]}},{"type":"Feature","properties":{"id":"ZEEQ"},"geometry":{"type":"MultiPolygon","coordinates":[[[[100,-32],[101,-32],[101,-31],[100,-31],[100,-32]]]]}},{"type":"Feature","properties":{"id":"ZEFQ"},"geometry":{"type":"MultiPolygon","coordinates":[[[[102.5,-31],[103.5,-31],[103.5,-30],[102.5,-30],[102.5,-31]]]]}},{"type":"Feature","properties":{"id":"ZEGQ"},"geometry":{"type":"MultiPolygon","coordinates":[[[[105,-30],[106,-30],[106,-29],[105,-29],[105,-30]]]]}},{"type":"Feature","properties":{"id":"ZEHQ"},"geometry":{"type":"MultiPolygon","coordinates":[[[[107.5,-29],[108.5,-29],[108.5,-28],[107.5,-28],[107.5,-29]]]]}},{"type":"Feature","properties":{"id":"ZEIQ"},"geometry":{"type":"MultiPolygon","coordinates":[[[[110,-28],[111,-28],[111,-27],[110,-27],[110,-28]]]]}},{"type":"Feature","properties":{"id":"ZEJQ"},"geometry":{"type":"MultiPolygon","coordinates":[[[[112.5,-27],[113.5,-27],[113.5,-26],[112.5,-26],[112.5,-27]]]]}},{"type":"Feature","properties":{"id":"ZEKQ"},"geometry":{"type":"MultiPolygon","coordinates":[[[[115,-26],[116,-26],[116,-25],[115,-25],[115,-26]]]]}},{"type":"Feature","properties":{"id":"ZELQ"},"geometry":{"type":"MultiPolygon","coordinates":[[[[117.5,-25],[118.5,-25],[118.5,-24],[117.5,-24],[117.5,-25]]]]}},{"type":"Feature","properties":{"id":"ZEMQ"},"geometry":{"type":"MultiPolygon","coordinates":[[[[120,-24],[121,-24],[121,-23],[120,-23],[120,-24]]]]}},{"type":"Feature","properties":{"id":"ZENQ"},"geometry":{"type":"MultiPolygon","coordinates":[[[[122.5,-23],[123.5,-23],[123.5,-22],[122.5,-22],[122.5,-23]]]]}},{"type":"Feature","properties":{"id":"ZEOQ"},"geometry":{"type":"MultiPolygon","coordinates":[[[[125,-22],[126,-22],[126,-21],[125,-21],[125,-22]]]]}},{"type":"Feature","properties":{"id":"ZEPQ"},"geometry":{"type":"MultiPolygon","coordinates":[[[[127.5,-21],[128.5,-21],[128.5,-20],[127.5,-20],[127.5,-21]]]]}}]}